0 FENGYUN 1C DEB
1 30934U 99025AZY 13280.65109963  .00000922  00000-0  12524-2 0  8175
2 30934 098.7623 319.4429 0368458 136.2859 346.0872 13.36631258322034
0 FENGYUN 1C DEB
1 30934U 99025AZY 13282.67302458  .00001083  00000-0  14627-2 0  8189
2 30934 098.7622 321.1860 0368354 131.2449 355.3206 13.36637584322309
0 FENGYUN 1C DEB
1 30934U 99025AZY 13286.85143211  .00001147  00000-0  15474-2 0  8208
2 30934 098.7612 324.7887 0368049 120.8297 301.3835 13.36645750322866
0 FENGYUN 1C DEB
1 30934U 99025AZY 13289.84466204  .00001176  00000-0  15859-2 0  8210
2 30934 098.7603 327.3691 0367839 113.3582 304.5943 13.36655112323261
0 FENGYUN 1C DEB
1 30934U 99025AZY 13292.09031662  .00001179  00000-0  15905-2 0  8223
2 30934 098.7603 329.3048 0367615 107.7471 310.5916 13.36659710323563
0 FENGYUN 1C DEB
1 30934U 99025AZY 13294.10484567  .00001222  00000-0  16478-2 0  8239
2 30934 098.7604 331.0408 0367484 102.7094 284.4620 13.36665281323835
